ONEWEB-0249             
1 48967U 21060A   24134.44669084  .00000149  00000+0  35550-3 0  9992
2 48967  87.9139  21.0023 0001849  80.8508 279.2832 13.16594030138986
ONEWEB-0250             
1 48968U 21060B   24134.37543505  .00000159  00000+0  38271-3 0  9998
2 48968  87.9138  21.0000 0002113  87.3560 272.7812 13.16597381138951
ONEWEB-0252             
1 48970U 21060D   24134.40234591  .00000045  00000+0  85172-4 0  9994
2 48970  87.9139  21.0039 0001712  84.5669 275.5657 13.16593061139028
ONEWEB-0253             
1 48971U 21060E   24134.61926625  .00000081  00000+0  17939-3 0  9999
2 48971  87.9139  20.9742 0001899  90.9511 269.1837 13.16594611138986
ONEWEB-0254             
1 48972U 21060F   24134.40076521 -.00000358  00000+0 -96883-3 0  9992
2 48972  87.9140  20.9945 0001925  92.2059 267.9292 13.16595226138957
ONEWEB-0255             
1 48973U 21060G   24134.43878334  .00000127  00000+0  29957-3 0  9998
2 48973  87.9137  21.0217 0001892  82.9987 277.1360 13.16594349139031
ONEWEB-0256             
1 48974U 21060H   24134.38885679 -.00000521  00000+0 -13956-2 0  9994
2 48974  87.9142  21.0337 0001615  79.5479 280.5834 13.16594610138991
ONEWEB-0257             
1 48975U 21060J   24134.42135529  .00000024  00000+0  28613-4 0  9996
2 48975  87.9138  20.9989 0001739  85.3613 274.7717 13.16593040138957
